NAVSTAR 77 (USA 289)    
1 43873U 18109A   24130.26762069  .00000028  00000+0  00000+0 0  9990
2 43873  55.2826 122.5646 0028699 195.9191 212.7065  2.00554152 39650
